<?xml version="1.0" encoding="UTF-8"?>
<kml xmlns="http://www.opengis.net/kml/2.2" xmlns:gx="http://www.google.com/kml/ext/2.2">
    <Document id="74">
        <Style id="77">
            <LineStyle id="78">
                <color>ff0000ff</color>
                <colorMode>normal</colorMode>
                <width>3</width>
            </LineStyle>
        </Style>
        <Placemark id="76">
            <name>GPS Trajectory</name>
            <styleUrl>#77</styleUrl>
            <LineString id="75">
                <altitudeMode>absolute</altitudeMode>
                <coordinates>34.81332473041638,32.16873660574016,32.458440193906426 34.813261250076714,32.16879341702037,46.522116225771605 34.81307405144482,32.16874336952742,48.0398754142411 34.813240465993005,32.16872938027614,42.846080963326614 34.813150207188144,32.16879201570774,44.16438190030846 34.813029787293445,32.168705420877,53.63897669429784 34.81318477958325,32.168741642133426,48.72209132859501 34.81324772340361,32.16882470491396,56.857285275293634 34.81322790047024,32.1687862683767,53.935011496793 34.81324926482652,32.16882152026269,50.505815314519445 34.813200059564736,32.16877771327529,49.936272726760684 34.81320870829822,32.16876153639997,49.089586861688105 34.813105250553996,32.16869044812143,38.41638451534583 34.81311929604626,32.16873622203143,37.566810023034876 34.81309051313925,32.16879247510422,44.60594373410238 34.81298611022515,32.1688772742877,40.49042318510592 34.81294704891319,32.168876511850996,39.427652013595456 34.81287653013631,32.16871405318279,38.31843502659414 34.812783287384185,32.168856402739245,34.90407722433701 34.81280918890097,32.168870654945344,33.28835381961198 34.81269465818269,32.168787705221376,32.955828409510914 34.81263928124741,32.1688945868318,34.26700855316733 34.81246852883348,32.16881998477412,39.87087817036644 34.8124586864828,32.16890536208247,42.405465437091635 34.81240879168087,32.16890815402244,49.1030769606067 34.81223379000254,32.16882330180208,40.110770077059 34.81234146363079,32.16872543190669,40.69494895442404 34.812183652728585,32.16890000592278,44.179480627493106 34.81199701705855,32.16859624240614,33.84688628607986 34.811958357473635,32.16867241744325,28.38415786155982 34.81174813012953,32.16880961531135,37.902727043333115 34.81188318775122,32.168862605176884,40.72649989533968 34.81193708132445,32.16896273668488,41.71021163792394 34.811835464846354,32.16888497528233,42.123302141457174 34.81181385450998,32.16890106981799,44.225933973202416 34.81175031067342,32.168941221797944,52.49634626735276 34.81186570859212,32.16903668967616,54.22506968519656 34.81188642702652,32.16894898726008,48.55235863720723 34.81192007370035,32.1690327757908,43.73332827019684 34.811853956721926,32.16902048597073,37.47207741001839 34.81192301433313,32.169088529564725,37.6137966299538 34.812026155674104,32.16916495456051,41.8986004908645 34.81196339474598,32.16918746164233,38.72971012105765 34.81202541983649,32.16933985291554,43.76532121334503 34.81208625074946,32.16929560305134,41.77997676124246 34.812092770609574,32.16933513508114,38.67218625080386 34.81214947291896,32.169530412905374,43.78730618153149 34.81208092313793,32.16949715695644,46.572708621698304 34.81222241322939,32.16962889123354,43.490998087318616 34.81217596229027,32.169643928884575,39.31730965813678 34.81233442469559,32.16978562023153,40.68785094094502 34.812359642137736,32.169822753530525,42.10610173305431 34.81240669621938,32.17003235000935,46.609651792762335 34.81240712985311,32.17000232681427,45.50563291318328 34.812349464152014,32.17001946629968,39.18910505895791 34.812341731454744,32.17011133526071,33.423570316706936 34.81248005332041,32.170177311425924,33.158893382099656 34.812495131167374,32.170245347218376,31.45207630669889 34.812564624817576,32.1703619913597,35.866608557383934 34.812546593463054,32.1703903706438,32.24556129003838 34.81260929830631,32.17047613675015,32.231722921439186 34.81262872323087,32.170542254313254,34.07828380337926 34.8126477012433,32.1706144096536,30.856825265084456 34.812741833243464,32.17075570954259,35.92158083886537 34.8127733203017,32.170818733932336,38.846210764740334 34.812720843361355,32.17081182622205,33.37457108368585 34.812768208750114,32.17098660849834,32.97999600500813 34.81290650229676,32.1709916446245,36.9763193540751 34.8130112534353,32.17102485287566,39.85742911820837 34.812905456821696,32.17122370740639,44.3881370247668 34.81291855865065,32.1712210874425,44.12227794160556 34.813047747833714,32.1714290564399,51.279508999304994 34.81292225118228,32.171298250533724,45.820348377634495 34.81292593609273,32.171386931263626,43.43182662196615 34.812891814581704,32.171663251704906,50.74559114166087 34.81293813971561,32.17163602319521,49.00348720372061 34.81296868697813,32.17166896396549,44.94368410430712 34.81298163798255,32.1717377957051,41.692179029907074 34.81299157951049,32.17179102981189,41.70240479863703 34.81299801371299,32.17187053342695,38.34469948380479 34.812994181826966,32.171957626238616,37.18299009495479 34.813026810553055,32.171984084516794,36.89463197135504 34.81308388457222,32.172159059776206,42.88329495090249 34.813070350313154,32.17211377220888,43.295604882108435 34.81303187404942,32.172165961255786,42.781343195223144 34.81305013946926,32.172269556367446,42.90955835573955 34.81304993627158,32.17228056172308,42.693595043707965 34.813132741939846,32.172316470548274,42.96327379498989 34.81306927653007,32.17235278654993,40.627122331457855 34.81299584451731,32.17238555382331,43.16794849348765 34.81305809712978,32.172453276811886,43.77447587746646 34.81300425775418,32.17249498871477,47.18522099044209 34.81304012639516,32.172493707083134,45.81198451890076 34.81292635033668,32.17249784514916,45.62301002942862 34.8129906661665,32.17255661630929,44.8134686601891 34.81281396549731,32.172372082466396,40.18981913306824 34.8127461857625,32.17242560408296,41.915349212400194 34.81281076369265,32.172586837809156,41.096444509777875 34.81268709239733,32.1725525349285,41.940251903227136 34.81264652900401,32.17245688396624,43.613269051735664 34.81252424883031,32.17243582250509,37.979403971181604 34.81255065727127,32.17252487209605,35.27255542698741 34.81238686089934,32.17262572930867,42.57203995065781 34.812387944135125,32.17258619005049,41.52754455126275 34.81228223381317,32.172556753273305,42.9790677732787 34.81221529951865,32.172546710629014,44.977259370582104 34.812149095550936,32.172614211857045,43.05479878034717 34.81223197540401,32.17256044743338,42.93876275481103 34.812089125459444,32.17250544211039,38.7285560767705 34.81216713971203,32.17260173798873,42.67707289609172 34.81212173666315,32.172458655226485,43.15162914283698 34.81213000281991,32.172453451003676,42.141980911773565 34.81216733958339,32.17238197905042,41.00367261117943 34.812154654799116,32.1723755448777,36.68639392578849 34.8121571887404,32.17236293670482,35.14122801851579 34.81206325699303,32.17225437776,38.62298433244297 34.81202099519049,32.17226283052374,39.694384129632745 34.812065540644824,32.172133582303545,42.73715512131896 34.811917293496606,32.172134444137555,43.823931412841354 34.81199202276947,32.17210613088966,41.90728593473567 34.811903036482,32.17201345916561,44.768573031124504 34.8119891341382,32.17199640164966,41.90862567277791 34.81186850248767,32.17195041508089,42.59219950833846 34.81179535788135,32.17189308088354,44.30800711361567 34.81189649123889,32.1718739206339,38.87642539440195 34.811806565837486,32.17179736817782,39.08868111894424 34.811886542777955,32.17170893208804,37.28386067653697 34.81172676205779,32.17158330605534,43.01767906426515 34.811595096834836,32.17146804989635,55.74511693399164 34.81171939940824,32.17146750386211,55.422858401535294 34.81178267277929,32.171457132698436,50.661250937218554 34.811647076715964,32.171461497112375,43.8851858694251 34.81167880152257,32.1713978447855,39.85850240123539 34.81160771658588,32.1712557174508,43.99096717103161 34.81157468195945,32.17121874947536,45.623445136680566 34.811504863114564,32.17116072067061,46.23964340002865 34.81161487487216,32.171092110814214,42.87903033766841 34.811472073342536,32.170959763690384,46.78979659330434 34.81143963651015,32.170991374983075,43.523187192136895 34.81139949727255,32.170817319373995,49.649441675641526 34.811409251981054,32.17084914286898,44.71510919432106 34.811310318687575,32.17075927152426,45.82775280482007 34.81130055122118,32.170665855129464,48.238984797734794 34.81123050033408,32.17060845986042,49.52340890992397 34.81139098507275,32.17064449120671,38.87100510927637 34.811190180383086,32.170552635556135,39.00587832222079 34.8112455729037,32.170474834925514,37.778537700321884 34.81112896694559,32.17037909960706,39.117729356212045 34.8112616171536,32.17033476999324,42.162043316638304 34.81114671642085,32.17025809854026,39.513624976167414 34.81110534583712,32.170109826416294,40.95771841633447 34.81102445954096,32.17028902868935,38.95910398304775 34.810934225167024,32.17015837393609,41.37929502773503 34.810977983476754,32.170032608631104,40.12561393383894 34.8110267913536,32.169960604306816,39.217463649071775 34.81102145030339,32.16991814705397,34.10064911902474 34.811079074612536,32.169839152635,31.771989541362906 34.81087793407415,32.169752557929975,36.796701821569684 34.810871447391136,32.169717459382966,35.425314901632674 34.81089588955401,32.16961971556406,34.01235807871205 34.81081540128976,32.16959797925634,31.987464949660176 34.81079132360048,32.16948374345689,33.18352640478772 34.81058861402484,32.169341955989886,42.73732112510153 34.810725894777846,32.169339494897244,41.01133564386346 34.81055852580923,32.16923213657257,45.620845912902354 34.810712661434366,32.16924307023778,40.05906005153423 34.81068698790046,32.169217197839636,42.08060647567913 34.810589317712555,32.169017499928536,42.71286007673977 34.8104317541643,32.16896744020966,49.007779865561744 34.810489298940006,32.16894447633661,45.75748135002992 34.81063772819014,32.16879378516572,45.743477409518306 34.81052342143839,32.168811440751014,43.481460027172496 34.81042450708454,32.16876099658952,47.873359684582326 34.810560659670045,32.16877638657977,44.18301395355914 34.81060899247969,32.16866550535082,45.90543395925167 34.810620612423584,32.16863241924437,42.82266820421712 34.81064307893289,32.16867075325826,38.769588310737184 34.810879774407354,32.16877682737731,40.83132518916392 34.810915780231895,32.168665442523654,39.399685583044786 34.81091120408374,32.168706334578005,38.814496113989044 34.811057678193514,32.16877879736495,39.31783506949698 34.81119031598044,32.16874767358806,37.17092770829517 34.811265617209386,32.16874570041434,34.78609182834057 34.81138857752857,32.168757746620614,33.00525497888748 34.8114322891758,32.16875605311192,34.32642580133957 34.81149549109543,32.168742984219406,33.52433308021324 34.811588982459426,32.16884431450232,35.54231843059155 34.81159074943224,32.16875948513,34.779107091665765 34.81156010008405,32.16867354390271,30.14491787458544 34.81169987772993,32.1688183789741,32.08129612104157 34.81173239829454,32.16879483010925,30.954539804909288 34.811777650451866,32.16884517705181,32.974715886025436 34.81183024957124,32.168834728723546,32.717890258077446 34.81184114933981,32.16883128327193,34.15978003907756 34.81189168925881,32.16886802397769,35.733236776309596 34.811920461425,32.16883884447561,36.19172436169626 34.812058224304124,32.168933790963024,37.299788755721494 34.81210382996998,32.16891910474717,38.69996498382479 34.812294614287815,32.168849768566815,42.54059043790001 34.81221766439829,32.16883601944989,38.02723119722623 34.812490809009184,32.16885432951164,44.130765451924475 34.81251000548075,32.16882570752615,44.936172033293076 34.81254290225122,32.16883675653983,43.10886906117585 34.81262366743279,32.16890751182018,43.39055320958317 34.8126614804862,32.16880008732601,41.454705056584274 34.81269396749428,32.16883392721427,39.466788112825874 34.81280020592252,32.16883360978391,38.04603915156891 34.812956733212204,32.168850097596476,40.822810629761506 34.81287368534843,32.168791420149546,34.76261838226085 34.81299349171068,32.16877601039007,35.012881381762476 34.81304425807656,32.16873051543001,40.51624225065531 34.81308870128027,32.16883112946632,41.08363718268568 34.81313899534933,32.168820574501304,49.98403217826392 34.81298811526441,32.168802322979474,48.76380022538328 34.8133188405913,32.168805729186126,49.13595860537352 34.813256550286155,32.168754328494465,46.83147529237491 34.8132963862083,32.16879990329873,46.42363632342955 34.81348691055232,32.168860369713826,62.06729120532267 34.81328152477735,32.168774272460865,67.36107708074117 34.81323742591157,32.168812264049706,62.02736076917101 34.8132589166979,32.16884772869974,64.66268580447603 34.81326592844386,32.168828928492665,59.455970960954104 34.81327968276365,32.1687221925729,62.54549373464111 34.81336083524141,32.16865954033364,63.29204120536323 34.81321324327998,32.16879684259437,59.98783662297848 34.813225566523926,32.16879876133565,60.89242787962745 34.81291575280271,32.16882157922285,67.34289957227347 34.813370236446474,32.168807851861416,61.569504395711434 34.81335355538566,32.16874739933164,59.18926297234282 34.81327453152315,32.168808090145156,67.867529715502 34.81332492331755,32.16876076754001,54.80095687039953 34.81324780258291,32.16879227214906,51.61768722140946 34.813249704669246,32.16868788162011,46.310378207400795 34.81328817157488,32.168794880503555,56.315794654172905 34.813220787954975,32.16881248477214,61.10210874861734 34.81309057889786,32.16901406971389,73.58235192288711 34.81328847352516,32.16870584066108,74.20549130125298 34.8132397300693,32.16879509805458,69.99423183997762 34.813118893263514,32.16860630722589,63.415709529105115 34.81338360596393,32.16873101813581,48.468757130228774 34.81329515630894,32.16880491620694,67.58134981916974 34.813441285250384,32.16873746946442,67.29903710750133 34.81335029659857,32.16864653519627,54.531355222851516 34.813147115338715,32.168783418883436,64.49677337587211 34.81327520539805,32.16863656502348,53.922234647727095 34.8131028663094,32.168321393350276,42.65993198059922 34.81342292440214,32.168370963145215,30.32960441158635 34.813375762328924,32.168529060482754,27.228452123763617 34.8132402529518,32.168572354398606,37.889304428591046 34.81333468423183,32.16867304436844,43.637863245022146 34.813247367830265,32.168561053259324,48.42276798693541 34.81322749390137,32.16850406274056,46.02516716578471 34.813261462096634,32.168542944665084,47.90895835044441 34.813145489634465,32.16860714014272,54.98774717953275 34.8132095316044,32.1684878053698,42.993099249006846 34.81319773575972,32.16852840864066,44.8395335416581 34.813338217040815,32.168627804249596,48.11775306000412 34.81322369054445,32.168605947854395,57.78332687607154 34.81315847736244,32.16839003749948,50.10707237915219 34.81316896361472,32.168622350908976,69.94982176766138</coordinates>
            </LineString>
        </Placemark>
        <Folder id="79">
            <name>Points (1 every 9s)</name>
            <Placemark id="81">
                <name>15:17:57 • 0.5 m/s</name>
                <description>UTC: 2026-03-21T15:17:57.418Z
Position: 32.168737°, 34.813325°, 32.5 m
Speed: 0.45 m/s (1.6 km/h)
  vx = -0.14 m/s
  vy = -0.04 m/s
  vz = -0.43 m/s
Satellites: 5</description>
                <TimeStamp id="82">
                    <when>2026-03-21T15:17:57.418Z</when>
                </TimeStamp>
                <Point id="80">
                    <coordinates>34.81332473041638,32.16873660574016,32.458440193906426</coordinates>
                    <altitudeMode>absolute</altitudeMode>
                </Point>
            </Placemark>
            <Placemark id="84">
                <name>15:18:06 • 0.6 m/s</name>
                <description>UTC: 2026-03-21T15:18:06.418Z
Position: 32.168786°, 34.813228°, 53.9 m
Speed: 0.62 m/s (2.2 km/h)
  vx = -0.06 m/s
  vy = +0.36 m/s
  vz = +0.50 m/s
Satellites: 6</description>
                <TimeStamp id="85">
                    <when>2026-03-21T15:18:06.418Z</when>
                </TimeStamp>
                <Point id="83">
                    <coordinates>34.81322790047024,32.1687862683767,53.935011496793</coordinates>
                    <altitudeMode>absolute</altitudeMode>
                </Point>
            </Placemark>
            <Placemark id="87">
                <name>15:18:15 • 5.8 m/s</name>
                <description>UTC: 2026-03-21T15:18:15.418Z
Position: 32.168714°, 34.812877°, 38.3 m
Speed: 5.80 m/s (20.9 km/h)
  vx = +2.73 m/s
  vy = -5.12 m/s
  vz = +0.01 m/s
Satellites: 6</description>
                <TimeStamp id="88">
                    <when>2026-03-21T15:18:15.418Z</when>
                </TimeStamp>
                <Point id="86">
                    <coordinates>34.81287653013631,32.16871405318279,38.31843502659414</coordinates>
                    <altitudeMode>absolute</altitudeMode>
                </Point>
            </Placemark>
            <Placemark id="90">
                <name>15:18:24 • 6.8 m/s</name>
                <description>UTC: 2026-03-21T15:18:24.418Z
Position: 32.168725°, 34.812341°, 40.7 m
Speed: 6.76 m/s (24.3 km/h)
  vx = +3.61 m/s
  vy = -5.71 m/s
  vz = -0.29 m/s
Satellites: 6</description>
                <TimeStamp id="91">
                    <when>2026-03-21T15:18:24.418Z</when>
                </TimeStamp>
                <Point id="89">
                    <coordinates>34.81234146363079,32.16872543190669,40.69494895442404</coordinates>
                    <altitudeMode>absolute</altitudeMode>
                </Point>
            </Placemark>
            <Placemark id="93">
                <name>15:18:33 • 1.4 m/s</name>
                <description>UTC: 2026-03-21T15:18:33.418Z
Position: 32.168941°, 34.811750°, 52.5 m
Speed: 1.43 m/s (5.1 km/h)
  vx = -1.28 m/s
  vy = -0.31 m/s
  vz = +0.55 m/s
Satellites: 7</description>
                <TimeStamp id="94">
                    <when>2026-03-21T15:18:33.418Z</when>
                </TimeStamp>
                <Point id="92">
                    <coordinates>34.81175031067342,32.168941221797944,52.49634626735276</coordinates>
                    <altitudeMode>absolute</altitudeMode>
                </Point>
            </Placemark>
            <Placemark id="96">
                <name>15:18:42 • 8.8 m/s</name>
                <description>UTC: 2026-03-21T15:18:42.418Z
Position: 32.169296°, 34.812086°, 41.8 m
Speed: 8.81 m/s (31.7 km/h)
  vx = -5.27 m/s
  vy = +0.47 m/s
  vz = +7.04 m/s
Satellites: 6</description>
                <TimeStamp id="97">
                    <when>2026-03-21T15:18:42.418Z</when>
                </TimeStamp>
                <Point id="95">
                    <coordinates>34.81208625074946,32.16929560305134,41.77997676124246</coordinates>
                    <altitudeMode>absolute</altitudeMode>
                </Point>
            </Placemark>
            <Placemark id="99">
                <name>15:18:51 • 9.8 m/s</name>
                <description>UTC: 2026-03-21T15:18:51.418Z
Position: 32.170002°, 34.812407°, 45.5 m
Speed: 9.79 m/s (35.2 km/h)
  vx = -5.42 m/s
  vy = +0.69 m/s
  vz = +8.12 m/s
Satellites: 6</description>
                <TimeStamp id="100">
                    <when>2026-03-21T15:18:51.418Z</when>
                </TimeStamp>
                <Point id="98">
                    <coordinates>34.81240712985311,32.17000232681427,45.50563291318328</coordinates>
                    <altitudeMode>absolute</altitudeMode>
                </Point>
            </Placemark>
            <Placemark id="102">
                <name>15:19:00 • 9.6 m/s</name>
                <description>UTC: 2026-03-21T15:19:00.418Z
Position: 32.170614°, 34.812648°, 30.9 m
Speed: 9.58 m/s (34.5 km/h)
  vx = -6.08 m/s
  vy = -0.37 m/s
  vz = +7.39 m/s
Satellites: 6</description>
                <TimeStamp id="103">
                    <when>2026-03-21T15:19:00.418Z</when>
                </TimeStamp>
                <Point id="101">
                    <coordinates>34.8126477012433,32.1706144096536,30.856825265084456</coordinates>
                    <altitudeMode>absolute</altitudeMode>
                </Point>
            </Placemark>
            <Placemark id="105">
                <name>15:19:09 • 7.9 m/s</name>
                <description>UTC: 2026-03-21T15:19:09.418Z
Position: 32.171429°, 34.813048°, 51.3 m
Speed: 7.92 m/s (28.5 km/h)
  vx = -3.67 m/s
  vy = -1.77 m/s
  vz = +6.79 m/s
Satellites: 7</description>
                <TimeStamp id="106">
                    <when>2026-03-21T15:19:09.418Z</when>
                </TimeStamp>
                <Point id="104">
                    <coordinates>34.813047747833714,32.1714290564399,51.279508999304994</coordinates>
                    <altitudeMode>absolute</altitudeMode>
                </Point>
            </Placemark>
            <Placemark id="108">
                <name>15:19:18 • 7.3 m/s</name>
                <description>UTC: 2026-03-21T15:19:18.418Z
Position: 32.171958°, 34.812994°, 37.2 m
Speed: 7.26 m/s (26.1 km/h)
  vx = -3.57 m/s
  vy = -1.51 m/s
  vz = +6.14 m/s
Satellites: 7</description>
                <TimeStamp id="109">
                    <when>2026-03-21T15:19:18.418Z</when>
                </TimeStamp>
                <Point id="107">
                    <coordinates>34.812994181826966,32.171957626238616,37.18299009495479</coordinates>
                    <altitudeMode>absolute</altitudeMode>
                </Point>
            </Placemark>
            <Placemark id="111">
                <name>15:19:27 • 2.5 m/s</name>
                <description>UTC: 2026-03-21T15:19:27.418Z
Position: 32.172386°, 34.812996°, 43.2 m
Speed: 2.53 m/s (9.1 km/h)
  vx = -1.47 m/s
  vy = -1.11 m/s
  vz = +1.73 m/s
Satellites: 8</description>
                <TimeStamp id="112">
                    <when>2026-03-21T15:19:27.418Z</when>
                </TimeStamp>
                <Point id="110">
                    <coordinates>34.81299584451731,32.17238555382331,43.16794849348765</coordinates>
                    <altitudeMode>absolute</altitudeMode>
                </Point>
            </Placemark>
            <Placemark id="114">
                <name>15:19:36 • 4.6 m/s</name>
                <description>UTC: 2026-03-21T15:19:36.418Z
Position: 32.172553°, 34.812687°, 41.9 m
Speed: 4.58 m/s (16.5 km/h)
  vx = +1.37 m/s
  vy = -4.34 m/s
  vz = +0.44 m/s
Satellites: 8</description>
                <TimeStamp id="115">
                    <when>2026-03-21T15:19:36.418Z</when>
                </TimeStamp>
                <Point id="113">
                    <coordinates>34.81268709239733,32.1725525349285,41.940251903227136</coordinates>
                    <altitudeMode>absolute</altitudeMode>
                </Point>
            </Placemark>
            <Placemark id="117">
                <name>15:19:45 • 2.5 m/s</name>
                <description>UTC: 2026-03-21T15:19:45.418Z
Position: 32.172560°, 34.812232°, 42.9 m
Speed: 2.47 m/s (8.9 km/h)
  vx = +1.51 m/s
  vy = -1.94 m/s
  vz = -0.31 m/s
Satellites: 8</description>
                <TimeStamp id="118">
                    <when>2026-03-21T15:19:45.418Z</when>
                </TimeStamp>
                <Point id="116">
                    <coordinates>34.81223197540401,32.17256044743338,42.93876275481103</coordinates>
                    <altitudeMode>absolute</altitudeMode>
                </Point>
            </Placemark>
            <Placemark id="120">
                <name>15:19:54 • 5.3 m/s</name>
                <description>UTC: 2026-03-21T15:19:54.418Z
Position: 32.172263°, 34.812021°, 39.7 m
Speed: 5.25 m/s (18.9 km/h)
  vx = +3.97 m/s
  vy = +0.43 m/s
  vz = -3.42 m/s
Satellites: 7</description>
                <TimeStamp id="121">
                    <when>2026-03-21T15:19:54.418Z</when>
                </TimeStamp>
                <Point id="119">
                    <coordinates>34.81202099519049,32.17226283052374,39.694384129632745</coordinates>
                    <altitudeMode>absolute</altitudeMode>
                </Point>
            </Placemark>
            <Placemark id="123">
                <name>15:20:03 • 7.1 m/s</name>
                <description>UTC: 2026-03-21T15:20:03.418Z
Position: 32.171797°, 34.811807°, 39.1 m
Speed: 7.05 m/s (25.4 km/h)
  vx = +4.13 m/s
  vy = +0.16 m/s
  vz = -5.71 m/s
Satellites: 7</description>
                <TimeStamp id="124">
                    <when>2026-03-21T15:20:03.418Z</when>
                </TimeStamp>
                <Point id="122">
                    <coordinates>34.811806565837486,32.17179736817782,39.08868111894424</coordinates>
                    <altitudeMode>absolute</altitudeMode>
                </Point>
            </Placemark>
            <Placemark id="126">
                <name>15:20:12 • 8.6 m/s</name>
                <description>UTC: 2026-03-21T15:20:12.418Z
Position: 32.171219°, 34.811575°, 45.6 m
Speed: 8.65 m/s (31.1 km/h)
  vx = -3.16 m/s
  vy = -0.62 m/s
  vz = -8.03 m/s
Satellites: 7</description>
                <TimeStamp id="127">
                    <when>2026-03-21T15:20:12.418Z</when>
                </TimeStamp>
                <Point id="125">
                    <coordinates>34.81157468195945,32.17121874947536,45.623445136680566</coordinates>
                    <altitudeMode>absolute</altitudeMode>
                </Point>
            </Placemark>
            <Placemark id="129">
                <name>15:20:21 • 6.6 m/s</name>
                <description>UTC: 2026-03-21T15:20:21.418Z
Position: 32.170608°, 34.811231°, 49.5 m
Speed: 6.62 m/s (23.8 km/h)
  vx = +4.30 m/s
  vy = -0.42 m/s
  vz = -5.01 m/s
Satellites: 5</description>
                <TimeStamp id="130">
                    <when>2026-03-21T15:20:21.418Z</when>
                </TimeStamp>
                <Point id="128">
                    <coordinates>34.81123050033408,32.17060845986042,49.52340890992397</coordinates>
                    <altitudeMode>absolute</altitudeMode>
                </Point>
            </Placemark>
            <Placemark id="132">
                <name>15:20:30 • 5.8 m/s</name>
                <description>UTC: 2026-03-21T15:20:30.418Z
Position: 32.170158°, 34.810934°, 41.4 m
Speed: 5.83 m/s (21.0 km/h)
  vx = +2.23 m/s
  vy = -0.07 m/s
  vz = -5.39 m/s
Satellites: 8</description>
                <TimeStamp id="133">
                    <when>2026-03-21T15:20:30.418Z</when>
                </TimeStamp>
                <Point id="131">
                    <coordinates>34.810934225167024,32.17015837393609,41.37929502773503</coordinates>
                    <altitudeMode>absolute</altitudeMode>
                </Point>
            </Placemark>
            <Placemark id="135">
                <name>15:20:39 • 8.6 m/s</name>
                <description>UTC: 2026-03-21T15:20:39.418Z
Position: 32.169484°, 34.810791°, 33.2 m
Speed: 8.62 m/s (31.0 km/h)
  vx = +5.04 m/s
  vy = -0.10 m/s
  vz = -7.00 m/s
Satellites: 7</description>
                <TimeStamp id="136">
                    <when>2026-03-21T15:20:39.418Z</when>
                </TimeStamp>
                <Point id="134">
                    <coordinates>34.81079132360048,32.16948374345689,33.18352640478772</coordinates>
                    <altitudeMode>absolute</altitudeMode>
                </Point>
            </Placemark>
            <Placemark id="138">
                <name>15:20:48 • 4.8 m/s</name>
                <description>UTC: 2026-03-21T15:20:48.418Z
Position: 32.168794°, 34.810638°, 45.7 m
Speed: 4.83 m/s (17.4 km/h)
  vx = -0.07 m/s
  vy = -1.31 m/s
  vz = -4.65 m/s
Satellites: 7</description>
                <TimeStamp id="139">
                    <when>2026-03-21T15:20:48.418Z</when>
                </TimeStamp>
                <Point id="137">
                    <coordinates>34.81063772819014,32.16879378516572,45.743477409518306</coordinates>
                    <altitudeMode>absolute</altitudeMode>
                </Point>
            </Placemark>
            <Placemark id="141">
                <name>15:20:57 • 11.1 m/s</name>
                <description>UTC: 2026-03-21T15:20:57.418Z
Position: 32.168706°, 34.810911°, 38.8 m
Speed: 11.08 m/s (39.9 km/h)
  vx = -6.15 m/s
  vy = +9.21 m/s
  vz = -0.19 m/s
Satellites: 6</description>
                <TimeStamp id="142">
                    <when>2026-03-21T15:20:57.418Z</when>
                </TimeStamp>
                <Point id="140">
                    <coordinates>34.81091120408374,32.168706334578005,38.814496113989044</coordinates>
                    <altitudeMode>absolute</altitudeMode>
                </Point>
            </Placemark>
            <Placemark id="144">
                <name>15:21:06 • 4.0 m/s</name>
                <description>UTC: 2026-03-21T15:21:06.418Z
Position: 32.168674°, 34.811560°, 30.1 m
Speed: 3.99 m/s (14.4 km/h)
  vx = -3.00 m/s
  vy = +1.07 m/s
  vz = -2.40 m/s
Satellites: 8</description>
                <TimeStamp id="145">
                    <when>2026-03-21T15:21:06.418Z</when>
                </TimeStamp>
                <Point id="143">
                    <coordinates>34.81156010008405,32.16867354390271,30.14491787458544</coordinates>
                    <altitudeMode>absolute</altitudeMode>
                </Point>
            </Placemark>
            <Placemark id="147">
                <name>15:21:15 • 6.9 m/s</name>
                <description>UTC: 2026-03-21T15:21:15.418Z
Position: 32.168919°, 34.812104°, 38.7 m
Speed: 6.85 m/s (24.7 km/h)
  vx = -3.51 m/s
  vy = +5.88 m/s
  vz = +0.34 m/s
Satellites: 5</description>
                <TimeStamp id="148">
                    <when>2026-03-21T15:21:15.418Z</when>
                </TimeStamp>
                <Point id="146">
                    <coordinates>34.81210382996998,32.16891910474717,38.69996498382479</coordinates>
                    <altitudeMode>absolute</altitudeMode>
                </Point>
            </Placemark>
            <Placemark id="150">
                <name>15:21:24 • 6.4 m/s</name>
                <description>UTC: 2026-03-21T15:21:24.418Z
Position: 32.168834°, 34.812694°, 39.5 m
Speed: 6.43 m/s (23.2 km/h)
  vx = -3.26 m/s
  vy = +5.54 m/s
  vz = -0.13 m/s
Satellites: 6</description>
                <TimeStamp id="151">
                    <when>2026-03-21T15:21:24.418Z</when>
                </TimeStamp>
                <Point id="149">
                    <coordinates>34.81269396749428,32.16883392721427,39.466788112825874</coordinates>
                    <altitudeMode>absolute</altitudeMode>
                </Point>
            </Placemark>
            <Placemark id="153">
                <name>15:21:33 • 2.9 m/s</name>
                <description>UTC: 2026-03-21T15:21:33.418Z
Position: 32.168802°, 34.812988°, 48.8 m
Speed: 2.91 m/s (10.5 km/h)
  vx = -1.09 m/s
  vy = +2.35 m/s
  vz = +1.32 m/s
Satellites: 6</description>
                <TimeStamp id="154">
                    <when>2026-03-21T15:21:33.418Z</when>
                </TimeStamp>
                <Point id="152">
                    <coordinates>34.81298811526441,32.168802322979474,48.76380022538328</coordinates>
                    <altitudeMode>absolute</altitudeMode>
                </Point>
            </Placemark>
            <Placemark id="156">
                <name>15:21:42 • 0.2 m/s</name>
                <description>UTC: 2026-03-21T15:21:42.418Z
Position: 32.168812°, 34.813237°, 62.0 m
Speed: 0.19 m/s (0.7 km/h)
  vx = -0.17 m/s
  vy = +0.07 m/s
  vz = -0.05 m/s
Satellites: 5</description>
                <TimeStamp id="157">
                    <when>2026-03-21T15:21:42.418Z</when>
                </TimeStamp>
                <Point id="155">
                    <coordinates>34.81323742591157,32.168812264049706,62.02736076917101</coordinates>
                    <altitudeMode>absolute</altitudeMode>
                </Point>
            </Placemark>
            <Placemark id="159">
                <name>15:21:51 • 1.4 m/s</name>
                <description>UTC: 2026-03-21T15:21:51.418Z
Position: 32.168822°, 34.812916°, 67.3 m
Speed: 1.45 m/s (5.2 km/h)
  vx = -0.67 m/s
  vy = -0.72 m/s
  vz = -1.06 m/s
Satellites: 6</description>
                <TimeStamp id="160">
                    <when>2026-03-21T15:21:51.418Z</when>
                </TimeStamp>
                <Point id="158">
                    <coordinates>34.81291575280271,32.16882157922285,67.34289957227347</coordinates>
                    <altitudeMode>absolute</altitudeMode>
                </Point>
            </Placemark>
            <Placemark id="162">
                <name>15:22:00 • 0.6 m/s</name>
                <description>UTC: 2026-03-21T15:22:00.418Z
Position: 32.169014°, 34.813091°, 73.6 m
Speed: 0.56 m/s (2.0 km/h)
  vx = +0.22 m/s
  vy = +0.04 m/s
  vz = +0.51 m/s
Satellites: 5</description>
                <TimeStamp id="163">
                    <when>2026-03-21T15:22:00.418Z</when>
                </TimeStamp>
                <Point id="161">
                    <coordinates>34.81309057889786,32.16901406971389,73.58235192288711</coordinates>
                    <altitudeMode>absolute</altitudeMode>
                </Point>
            </Placemark>
            <Placemark id="165">
                <name>15:22:09 • 2.0 m/s</name>
                <description>UTC: 2026-03-21T15:22:09.418Z
Position: 32.168783°, 34.813147°, 64.5 m
Speed: 1.98 m/s (7.1 km/h)
  vx = +1.16 m/s
  vy = +1.27 m/s
  vz = +0.99 m/s
Satellites: 5</description>
                <TimeStamp id="166">
                    <when>2026-03-21T15:22:09.418Z</when>
                </TimeStamp>
                <Point id="164">
                    <coordinates>34.813147115338715,32.168783418883436,64.49677337587211</coordinates>
                    <altitudeMode>absolute</altitudeMode>
                </Point>
            </Placemark>
            <Placemark id="168">
                <name>15:22:18 • 2.0 m/s</name>
                <description>UTC: 2026-03-21T15:22:18.418Z
Position: 32.168543°, 34.813261°, 47.9 m
Speed: 2.02 m/s (7.3 km/h)
  vx = +1.81 m/s
  vy = +0.35 m/s
  vz = +0.82 m/s
Satellites: 5</description>
                <TimeStamp id="169">
                    <when>2026-03-21T15:22:18.418Z</when>
                </TimeStamp>
                <Point id="167">
                    <coordinates>34.813261462096634,32.168542944665084,47.90895835044441</coordinates>
                    <altitudeMode>absolute</altitudeMode>
                </Point>
            </Placemark>
            <Placemark id="171">
                <name>15:22:33 • 1.7 m/s</name>
                <description>UTC: 2026-03-21T15:22:33.418Z
Position: 32.168622°, 34.813169°, 69.9 m
Speed: 1.73 m/s (6.2 km/h)
  vx = -1.27 m/s
  vy = -0.62 m/s
  vz = -1.00 m/s
Satellites: 5</description>
                <TimeStamp id="172">
                    <when>2026-03-21T15:22:33.418Z</when>
                </TimeStamp>
                <Point id="170">
                    <coordinates>34.81316896361472,32.168622350908976,69.94982176766138</coordinates>
                    <altitudeMode>absolute</altitudeMode>
                </Point>
            </Placemark>
        </Folder>
    </Document>
</kml>
