<?xml version="1.0" encoding="UTF-8"?>
<kml xmlns="http://www.opengis.net/kml/2.2" xmlns:gx="http://www.google.com/kml/ext/2.2">
    <Document id="1">
        <Style id="4">
            <LineStyle id="5">
                <color>ff0000ff</color>
                <colorMode>normal</colorMode>
                <width>3</width>
            </LineStyle>
        </Style>
        <Placemark id="3">
            <name>GPS Trajectory</name>
            <styleUrl>#4</styleUrl>
            <LineString id="2">
                <altitudeMode>absolute</altitudeMode>
                <coordinates>34.81323454021795,32.168450583149365,33.590019593946636 34.81328416111843,32.16842164503428,50.38358658645302 34.81326426156417,32.16858644527268,46.3340073665604 34.81320302583806,32.1684775486831,41.57052628789097 34.813277181463,32.16874621875452,45.91319058928639 34.81327010570582,32.16864179118704,46.400809708517045 34.81324994901592,32.1686448235137,54.5642549416516 34.81322104105562,32.16859431561855,30.74901139701251 34.813356376557934,32.16874633950664,46.7731392167625 34.81330054167867,32.16870564510261,41.220560526388 34.81333435062243,32.1687072323906,45.68335539843247 34.813203167664504,32.168830359683916,51.77254909554176 34.81332384585555,32.16865696395094,43.6015573250952 34.81336550649044,32.16884182534222,41.68979002418382 34.813274060391024,32.16883909279473,46.14075644768036 34.8132684283934,32.168731428115606,37.24104045651484 34.81324432055566,32.168748802712265,43.77810231709668 34.81324383001637,32.16875647470029,44.09802907668893 34.81308500564788,32.16875490908292,49.013810300551825 34.813185959977865,32.16875794390083,57.04785488560074 34.81325084373038,32.168716142605604,42.397514994327096 34.81321767679956,32.16880392692987,47.81791573999269 34.81317782907725,32.168756317798916,39.49671506860203 34.81323001353608,32.168731644207774,28.045214531835647 34.81313193776436,32.16877229987797,32.756429823527355 34.813036187888116,32.168706423856555,38.50134457295866 34.81315534578421,32.16879353035577,44.39499750045181 34.81309041028683,32.168742833256466,46.15015726658076 34.81311892566082,32.168813954754455,55.964904042102994 34.812920474409644,32.168626531964016,42.3619250055182 34.813100542685994,32.16877073888854,45.18388962958768 34.81304712172258,32.16874670346118,43.01516931238033 34.81311227116003,32.16881484787306,55.04098490585763 34.8131006086655,32.16886815313256,65.63804659180903 34.81300096590142,32.168839213552424,62.928067756018606 34.812947586484555,32.16878626028604,65.60173970281286 34.812911777788436,32.168798301170284,62.67740044606454 34.81280801535548,32.16871471866119,66.24921049714823 34.81288338639247,32.16880638773167,65.6454456605799 34.81295197683529,32.168741552199116,51.28717070067485 34.812881632296936,32.16880074073673,51.733715437325635 34.81295955310298,32.168811347064725,42.66914170839404 34.81272923212566,32.168746864678695,52.42299671866255 34.812733168720946,32.16883399541868,50.49143835308158 34.812712581989125,32.16876738714122,50.68504308053356 34.81273974546462,32.16877648313197,43.49674318861714 34.81267995197772,32.168833141945726,48.00779546723018 34.812779756439724,32.168750453246986,51.68998260852074 34.81283334682786,32.16889708048374,55.743395638932164 34.81283748438909,32.16889725590763,48.469509869953924 34.81287141814296,32.16876856150958,50.77947585990202 34.81280585557889,32.16880656298011,47.89664845661035 34.8129278669856,32.168835319110094,47.725438683427676 34.812861107891926,32.16871532241004,44.07627956994986 34.812932027833085,32.168835123319596,41.05297284739646 34.813036055981904,32.16891678685912,44.496650579285784 34.813004616569096,32.16886765175488,42.69467249274858 34.81300084413473,32.168893540847456,46.87011383634363 34.81294543934064,32.168852079328545,48.71436494250001 34.81309158880163,32.16883192908757,52.970230439380565 34.813092920225316,32.16884234362766,48.201013250593476 34.813088777527284,32.16886001975278,54.65083945418727 34.81302676082781,32.16876133320757,53.38878557675993 34.81303530287621,32.16882782866718,48.666736986644146 34.81316535829003,32.16890029228074,46.60056736281493 34.81318409725937,32.168780542152646,54.47793041150261 34.81312973060507,32.16868603991598,51.0539731317162 34.81315926983843,32.16879396558369,47.660899050950974 34.81317130833714,32.16896420962427,61.13236254334821 34.813338758456,32.16882095660176,71.10637317305617 34.813222971578426,32.168735280664265,57.941935184813104 34.81323293741405,32.16880955254271,47.03978346308274 34.813213991981556,32.16880558191034,47.250765981253004 34.81334760098262,32.16891557563258,55.91533065499168 34.81334994126721,32.16875869650705,46.544984714153166 34.81316960340401,32.16874688007508,41.420792210394026 34.81321730566065,32.16879202059699,50.199892220792115 34.813304204886904,32.16882467114861,48.32498559111578 34.81323268145348,32.1687740796668,51.16629503778106 34.81324827555049,32.16884426843885,52.20062836408111 34.813281974861304,32.16891102593874,40.21136312354104 34.813294545816056,32.168778469665604,45.86010292069861 34.81326458155219,32.168782159751565,52.127957561937464 34.81322583962068,32.168816933428786,51.213219791627175 34.81323327245263,32.16876173474045,47.750660415261365 34.81353078166384,32.168823145244055,70.75207736691802 34.813310111333635,32.16884688733861,62.979506428234124 34.81324661392313,32.16873250081193,55.950915149353364 34.81328503308394,32.1688283156473,51.210514011297334 34.81329751074094,32.1687131498561,52.96225127133911 34.81320521555038,32.16881308146058,50.62282212927657 34.81318864254529,32.16876443405156,57.151199110838114 34.81326398748761,32.168804481698885,59.12997630241257 34.81321048351319,32.16888822478209,37.86569629564381 34.813333013176646,32.16875464386212,44.00482275826606 34.813251802566235,32.168832672088605,40.99350520468192 34.81332175270395,32.16885695677382,46.98231501114958 34.81336365813027,32.16881069112609,47.415920968081025 34.813257826055924,32.168792212403396,38.922636231829955 34.81323828257414,32.16878305748882,48.91144840812943 34.8132129108947,32.16884480767664,52.711326249515075 34.81322549308682,32.16891777870349,56.577063157974465 34.81320338415568,32.168828730150985,55.36041531423419</coordinates>
            </LineString>
        </Placemark>
        <Folder id="6">
            <name>Points (1 every 5s)</name>
            <Placemark id="8">
                <name>15:14:41 • 1.3 m/s</name>
                <description>UTC: 2026-03-21T15:14:41.418Z
Position: 32.168451°, 34.813235°, 33.6 m
Speed: 1.26 m/s (4.5 km/h)
  vx = -0.70 m/s
  vy = -0.90 m/s
  vz = -0.53 m/s
Satellites: 5</description>
                <TimeStamp id="9">
                    <when>2026-03-21T15:14:41.418Z</when>
                </TimeStamp>
                <Point id="7">
                    <coordinates>34.81323454021795,32.168450583149365,33.590019593946636</coordinates>
                    <altitudeMode>absolute</altitudeMode>
                </Point>
            </Placemark>
            <Placemark id="11">
                <name>15:14:56 • 1.5 m/s</name>
                <description>UTC: 2026-03-21T15:14:56.418Z
Position: 32.168642°, 34.813270°, 46.4 m
Speed: 1.51 m/s (5.5 km/h)
  vx = -1.32 m/s
  vy = -0.60 m/s
  vz = +0.41 m/s
Satellites: 5</description>
                <TimeStamp id="12">
                    <when>2026-03-21T15:14:56.418Z</when>
                </TimeStamp>
                <Point id="10">
                    <coordinates>34.81327010570582,32.16864179118704,46.400809708517045</coordinates>
                    <altitudeMode>absolute</altitudeMode>
                </Point>
            </Placemark>
            <Placemark id="14">
                <name>15:15:01 • 0.8 m/s</name>
                <description>UTC: 2026-03-21T15:15:01.418Z
Position: 32.168707°, 34.813334°, 45.7 m
Speed: 0.79 m/s (2.8 km/h)
  vx = -0.52 m/s
  vy = -0.05 m/s
  vz = +0.58 m/s
Satellites: 7</description>
                <TimeStamp id="15">
                    <when>2026-03-21T15:15:01.418Z</when>
                </TimeStamp>
                <Point id="13">
                    <coordinates>34.81333435062243,32.1687072323906,45.68335539843247</coordinates>
                    <altitudeMode>absolute</altitudeMode>
                </Point>
            </Placemark>
            <Placemark id="17">
                <name>15:15:06 • 0.8 m/s</name>
                <description>UTC: 2026-03-21T15:15:06.418Z
Position: 32.168731°, 34.813268°, 37.2 m
Speed: 0.82 m/s (3.0 km/h)
  vx = +0.27 m/s
  vy = -0.55 m/s
  vz = +0.55 m/s
Satellites: 7</description>
                <TimeStamp id="18">
                    <when>2026-03-21T15:15:06.418Z</when>
                </TimeStamp>
                <Point id="16">
                    <coordinates>34.8132684283934,32.168731428115606,37.24104045651484</coordinates>
                    <altitudeMode>absolute</altitudeMode>
                </Point>
            </Placemark>
            <Placemark id="20">
                <name>15:15:11 • 1.4 m/s</name>
                <description>UTC: 2026-03-21T15:15:11.418Z
Position: 32.168716°, 34.813251°, 42.4 m
Speed: 1.44 m/s (5.2 km/h)
  vx = +1.18 m/s
  vy = -0.64 m/s
  vz = +0.53 m/s
Satellites: 5</description>
                <TimeStamp id="21">
                    <when>2026-03-21T15:15:11.418Z</when>
                </TimeStamp>
                <Point id="19">
                    <coordinates>34.81325084373038,32.168716142605604,42.397514994327096</coordinates>
                    <altitudeMode>absolute</altitudeMode>
                </Point>
            </Placemark>
            <Placemark id="23">
                <name>15:15:16 • 1.5 m/s</name>
                <description>UTC: 2026-03-21T15:15:16.418Z
Position: 32.168706°, 34.813036°, 38.5 m
Speed: 1.47 m/s (5.3 km/h)
  vx = +0.06 m/s
  vy = -1.39 m/s
  vz = -0.49 m/s
Satellites: 6</description>
                <TimeStamp id="24">
                    <when>2026-03-21T15:15:16.418Z</when>
                </TimeStamp>
                <Point id="22">
                    <coordinates>34.813036187888116,32.168706423856555,38.50134457295866</coordinates>
                    <altitudeMode>absolute</altitudeMode>
                </Point>
            </Placemark>
            <Placemark id="26">
                <name>15:15:21 • 1.0 m/s</name>
                <description>UTC: 2026-03-21T15:15:21.418Z
Position: 32.168771°, 34.813101°, 45.2 m
Speed: 0.99 m/s (3.6 km/h)
  vx = +0.78 m/s
  vy = -0.32 m/s
  vz = +0.52 m/s
Satellites: 6</description>
                <TimeStamp id="27">
                    <when>2026-03-21T15:15:21.418Z</when>
                </TimeStamp>
                <Point id="25">
                    <coordinates>34.813100542685994,32.16877073888854,45.18388962958768</coordinates>
                    <altitudeMode>absolute</altitudeMode>
                </Point>
            </Placemark>
            <Placemark id="29">
                <name>15:15:26 • 1.3 m/s</name>
                <description>UTC: 2026-03-21T15:15:26.418Z
Position: 32.168786°, 34.812948°, 65.6 m
Speed: 1.30 m/s (4.7 km/h)
  vx = +0.59 m/s
  vy = -1.16 m/s
  vz = -0.04 m/s
Satellites: 6</description>
                <TimeStamp id="30">
                    <when>2026-03-21T15:15:26.418Z</when>
                </TimeStamp>
                <Point id="28">
                    <coordinates>34.812947586484555,32.16878626028604,65.60173970281286</coordinates>
                    <altitudeMode>absolute</altitudeMode>
                </Point>
            </Placemark>
            <Placemark id="32">
                <name>15:15:31 • 1.8 m/s</name>
                <description>UTC: 2026-03-21T15:15:31.418Z
Position: 32.168801°, 34.812882°, 51.7 m
Speed: 1.82 m/s (6.5 km/h)
  vx = -0.09 m/s
  vy = -1.79 m/s
  vz = +0.32 m/s
Satellites: 7</description>
                <TimeStamp id="33">
                    <when>2026-03-21T15:15:31.418Z</when>
                </TimeStamp>
                <Point id="31">
                    <coordinates>34.812881632296936,32.16880074073673,51.733715437325635</coordinates>
                    <altitudeMode>absolute</altitudeMode>
                </Point>
            </Placemark>
            <Placemark id="35">
                <name>15:15:36 • 1.8 m/s</name>
                <description>UTC: 2026-03-21T15:15:36.418Z
Position: 32.168776°, 34.812740°, 43.5 m
Speed: 1.77 m/s (6.4 km/h)
  vx = +1.13 m/s
  vy = -1.35 m/s
  vz = +0.18 m/s
Satellites: 8</description>
                <TimeStamp id="36">
                    <when>2026-03-21T15:15:36.418Z</when>
                </TimeStamp>
                <Point id="34">
                    <coordinates>34.81273974546462,32.16877648313197,43.49674318861714</coordinates>
                    <altitudeMode>absolute</altitudeMode>
                </Point>
            </Placemark>
            <Placemark id="38">
                <name>15:15:41 • 1.7 m/s</name>
                <description>UTC: 2026-03-21T15:15:41.418Z
Position: 32.168769°, 34.812871°, 50.8 m
Speed: 1.71 m/s (6.2 km/h)
  vx = -0.79 m/s
  vy = +1.26 m/s
  vz = -0.84 m/s
Satellites: 7</description>
                <TimeStamp id="39">
                    <when>2026-03-21T15:15:41.418Z</when>
                </TimeStamp>
                <Point id="37">
                    <coordinates>34.81287141814296,32.16876856150958,50.77947585990202</coordinates>
                    <altitudeMode>absolute</altitudeMode>
                </Point>
            </Placemark>
            <Placemark id="41">
                <name>15:15:46 • 2.1 m/s</name>
                <description>UTC: 2026-03-21T15:15:46.418Z
Position: 32.168917°, 34.813036°, 44.5 m
Speed: 2.13 m/s (7.7 km/h)
  vx = -1.16 m/s
  vy = +1.76 m/s
  vz = +0.24 m/s
Satellites: 7</description>
                <TimeStamp id="42">
                    <when>2026-03-21T15:15:46.418Z</when>
                </TimeStamp>
                <Point id="40">
                    <coordinates>34.813036055981904,32.16891678685912,44.496650579285784</coordinates>
                    <altitudeMode>absolute</altitudeMode>
                </Point>
            </Placemark>
            <Placemark id="44">
                <name>15:15:51 • 1.9 m/s</name>
                <description>UTC: 2026-03-21T15:15:51.418Z
Position: 32.168842°, 34.813093°, 48.2 m
Speed: 1.89 m/s (6.8 km/h)
  vx = -0.89 m/s
  vy = +1.67 m/s
  vz = -0.08 m/s
Satellites: 7</description>
                <TimeStamp id="45">
                    <when>2026-03-21T15:15:51.418Z</when>
                </TimeStamp>
                <Point id="43">
                    <coordinates>34.813092920225316,32.16884234362766,48.201013250593476</coordinates>
                    <altitudeMode>absolute</altitudeMode>
                </Point>
            </Placemark>
            <Placemark id="47">
                <name>15:15:56 • 1.5 m/s</name>
                <description>UTC: 2026-03-21T15:15:56.418Z
Position: 32.168781°, 34.813184°, 54.5 m
Speed: 1.53 m/s (5.5 km/h)
  vx = -1.14 m/s
  vy = -0.29 m/s
  vz = -0.98 m/s
Satellites: 7</description>
                <TimeStamp id="48">
                    <when>2026-03-21T15:15:56.418Z</when>
                </TimeStamp>
                <Point id="46">
                    <coordinates>34.81318409725937,32.168780542152646,54.47793041150261</coordinates>
                    <altitudeMode>absolute</altitudeMode>
                </Point>
            </Placemark>
            <Placemark id="50">
                <name>15:16:01 • 0.9 m/s</name>
                <description>UTC: 2026-03-21T15:16:01.418Z
Position: 32.168735°, 34.813223°, 57.9 m
Speed: 0.94 m/s (3.4 km/h)
  vx = -0.83 m/s
  vy = +0.11 m/s
  vz = -0.43 m/s
Satellites: 7</description>
                <TimeStamp id="51">
                    <when>2026-03-21T15:16:01.418Z</when>
                </TimeStamp>
                <Point id="49">
                    <coordinates>34.813222971578426,32.168735280664265,57.941935184813104</coordinates>
                    <altitudeMode>absolute</altitudeMode>
                </Point>
            </Placemark>
            <Placemark id="53">
                <name>15:16:06 • 1.1 m/s</name>
                <description>UTC: 2026-03-21T15:16:06.418Z
Position: 32.168747°, 34.813170°, 41.4 m
Speed: 1.13 m/s (4.1 km/h)
  vx = -0.82 m/s
  vy = +0.63 m/s
  vz = +0.45 m/s
Satellites: 6</description>
                <TimeStamp id="54">
                    <when>2026-03-21T15:16:06.418Z</when>
                </TimeStamp>
                <Point id="52">
                    <coordinates>34.81316960340401,32.16874688007508,41.420792210394026</coordinates>
                    <altitudeMode>absolute</altitudeMode>
                </Point>
            </Placemark>
            <Placemark id="56">
                <name>15:16:11 • 1.3 m/s</name>
                <description>UTC: 2026-03-21T15:16:11.418Z
Position: 32.168911°, 34.813282°, 40.2 m
Speed: 1.29 m/s (4.6 km/h)
  vx = +0.86 m/s
  vy = -0.67 m/s
  vz = +0.68 m/s
Satellites: 6</description>
                <TimeStamp id="57">
                    <when>2026-03-21T15:16:11.418Z</when>
                </TimeStamp>
                <Point id="55">
                    <coordinates>34.813281974861304,32.16891102593874,40.21136312354104</coordinates>
                    <altitudeMode>absolute</altitudeMode>
                </Point>
            </Placemark>
            <Placemark id="59">
                <name>15:16:16 • 2.2 m/s</name>
                <description>UTC: 2026-03-21T15:16:16.418Z
Position: 32.168823°, 34.813531°, 70.8 m
Speed: 2.23 m/s (8.0 km/h)
  vx = -1.31 m/s
  vy = -0.82 m/s
  vz = -1.61 m/s
Satellites: 7</description>
                <TimeStamp id="60">
                    <when>2026-03-21T15:16:16.418Z</when>
                </TimeStamp>
                <Point id="58">
                    <coordinates>34.81353078166384,32.168823145244055,70.75207736691802</coordinates>
                    <altitudeMode>absolute</altitudeMode>
                </Point>
            </Placemark>
            <Placemark id="62">
                <name>15:16:21 • 1.1 m/s</name>
                <description>UTC: 2026-03-21T15:16:21.418Z
Position: 32.168813°, 34.813205°, 50.6 m
Speed: 1.06 m/s (3.8 km/h)
  vx = +0.90 m/s
  vy = -0.53 m/s
  vz = +0.22 m/s
Satellites: 6</description>
                <TimeStamp id="63">
                    <when>2026-03-21T15:16:21.418Z</when>
                </TimeStamp>
                <Point id="61">
                    <coordinates>34.81320521555038,32.16881308146058,50.62282212927657</coordinates>
                    <altitudeMode>absolute</altitudeMode>
                </Point>
            </Placemark>
            <Placemark id="65">
                <name>15:16:26 • 1.4 m/s</name>
                <description>UTC: 2026-03-21T15:16:26.418Z
Position: 32.168833°, 34.813252°, 41.0 m
Speed: 1.37 m/s (4.9 km/h)
  vx = -0.54 m/s
  vy = +1.13 m/s
  vz = -0.57 m/s
Satellites: 5</description>
                <TimeStamp id="66">
                    <when>2026-03-21T15:16:26.418Z</when>
                </TimeStamp>
                <Point id="64">
                    <coordinates>34.813251802566235,32.168832672088605,40.99350520468192</coordinates>
                    <altitudeMode>absolute</altitudeMode>
                </Point>
            </Placemark>
            <Placemark id="68">
                <name>15:16:31 • 5.4 m/s</name>
                <description>UTC: 2026-03-21T15:16:31.418Z
Position: 32.168845°, 34.813213°, 52.7 m
Speed: 5.41 m/s (19.5 km/h)
  vx = +3.95 m/s
  vy = +0.69 m/s
  vz = +3.64 m/s
Satellites: 5</description>
                <TimeStamp id="69">
                    <when>2026-03-21T15:16:31.418Z</when>
                </TimeStamp>
                <Point id="67">
                    <coordinates>34.8132129108947,32.16884480767664,52.711326249515075</coordinates>
                    <altitudeMode>absolute</altitudeMode>
                </Point>
            </Placemark>
            <Placemark id="71">
                <name>15:16:33 • 0.7 m/s</name>
                <description>UTC: 2026-03-21T15:16:33.418Z
Position: 32.168829°, 34.813203°, 55.4 m
Speed: 0.68 m/s (2.5 km/h)
  vx = -0.61 m/s
  vy = -0.30 m/s
  vz = +0.04 m/s
Satellites: 6</description>
                <TimeStamp id="72">
                    <when>2026-03-21T15:16:33.418Z</when>
                </TimeStamp>
                <Point id="70">
                    <coordinates>34.81320338415568,32.168828730150985,55.36041531423419</coordinates>
                    <altitudeMode>absolute</altitudeMode>
                </Point>
            </Placemark>
        </Folder>
    </Document>
</kml>
